#cP2020  1  7  0  0  0.00000000     192 ORBIT IGS14 HLM  IGS
## 2087 172800.00000000   900.00000000 58855 0.0000000000000
+   31   G01G02G03G04G05G06G07G08G09G10G11G12G13G14G15G16G17
+        G18G19G20G21G22G23G24G26G27G28G29G30G31G32  0  0  0
+          0  0  0  0  0  0  0  0  0  0  0  0  0  0  0  0  0
+          0  0  0  0  0  0  0  0  0  0  0  0  0  0  0  0  0
+          0  0  0  0  0  0  0  0  0  0  0  0  0  0  0  0  0
++         4  4  4  4  3  3  4  4  4  4  4  4  4  3  4  4  4
++         4  4  3  4  4  4  3  4  4  4  4  4  4  3  0  0  0
++         0  0  0  0  0  0  0  0  0  0  0  0  0  0  0  0  0
++         0  0  0  0  0  0  0  0  0  0  0  0  0  0  0  0  0
++         0  0  0  0  0  0  0  0  0  0  0  0  0  0  0  0  0
%c G  cc GPS ccc cccc cccc cccc cccc ccccc ccccc ccccc ccccc
%c cc cc ccc ccc cccc cccc cccc cccc ccccc ccccc ccccc ccccc
%f  1.2500000  1.025000000  0.00000000000  0.000000000000000
%f  0.0000000  0.000000000  0.00000000000  0.000000000000000
%i    0    0    0    0      0      0      0      0         0
%i    0    0    0    0      0      0      0      0         0
/* ULTRA ORBIT COMBINATION 20873_00 (58856.000) FROM:       
/* cou emu esu gfu usu whu                                  
/* REFERENCED TO emu CLOCK AND TO WEIGHTED MEAN POLE:       
/* PCV:IGS14_2086 OL/AL:FES2004  NONE     Y  ORB:CMB CLK:CMB
*  2020  1  7 18  0  0.00000000
PG01 -21122.292078 -12877.841471   9890.790427   -255.017552  9  7  9 196       
PG02  11455.483531  21487.013850  11362.176822   -381.489862  8 10  6 219       
PG03 -14879.851052  -2849.044419  21752.814334    -67.726710  7  7  8 220       
PG04 -24679.654215  -1853.137786   9675.164718    -31.033526  2  3  6 191       
PG05   4620.646550  21959.641658 -14189.347340     -5.772268  7  5  6 179       
PG06   -207.819405  18479.859443  19116.902606   -175.834920  8  9  7 200       
PG07 -16896.675651   2748.521997 -20142.235898   -187.038719     8  4 145       
PG08 -18345.602135  -7802.766334 -17630.156380    -19.424186  7  5  9 212       
PG09 -25766.587091   6461.250705    140.531376   -127.081395  6  8  8 152       
PG10  11501.120007 -22856.339855  -6588.959995   -201.087329  7 11  8 198       
PG11 -24581.484239  -9589.861996   -600.297119   -396.793783  6  4 10 187       
PG12  12597.527497   7969.215395  21774.986915    164.836844  5  7  4 203       
PG13  10023.550986  13333.989540 -20810.013120    -21.516540  6  5  6 185       
PG14   4799.289264 -15733.066664  21145.126053    -40.177242  5  8  5 193       
PG15  19785.969440   6571.384771 -16968.360526   -260.224329  3 11  7 188       
PG16  -1403.885582 -22294.277361 -14209.485291   -111.148326  5  9  9 216       
PG17 -15761.297248  14014.113155  16532.819609    194.572627  7 10  6 178       
PG18 -19889.290855 -17577.643647   1359.271292    111.921163 10  5  9 346       
PG19  -8665.522225  14682.081485  20077.559885   -215.661551  9 11  7 115       
PG20  14495.479955 -15473.513122 -15965.464741    527.763839  6 10  6 197       
PG21  14429.061536  -6530.494890 -20496.089119    -59.167642  8  7  7 215       
PG22 -13047.827027 -11525.101970  20302.461494   -781.066433  7  6  7 197       
PG23 -25332.660413    -69.412266   8953.960993   -144.600203  5  9  6 160       
PG24  21969.621517  13228.485317   7410.697789     -7.261389  6  7  8 181       
PG26   3394.133397 -25819.510507  -4631.604967    122.411621  8 11 11 179       
PG27  -7026.610693 -13488.446131 -21918.822877   -174.206550  8  8  8 214       
PG28 -12394.039623  23040.139997  -4375.917303    746.553083  6  9  6 217       
PG29  26228.146652  -4246.993419    255.807430     -1.594036  3  8  9 180       
PG30  -8540.876571  13636.936354 -21078.808322   -123.897983  2  8  3 210       
PG31  -1253.695650 -19764.921288  17439.730933    -15.006799  6  8  5 184       
PG32  14601.107933 -15277.034533  16067.454808    178.364863  6  5  3 209       
*  2020  1  7 18 15  0.00000000
PG01 -21705.316134 -13702.903895   7245.949935   -255.028560  9  6  9 200       
PG02  10313.634714  20756.614752  13696.360546   -381.496076  8 10  6 219       
PG03 -14245.894378  -5266.955742  21734.219318    -67.733555  7  6  8 222       
PG04 -23518.993317  -2360.769944  12140.826610    -31.038372  3  3  6 196       
PG05   4059.413897  23351.898320 -11919.034792     -5.773220  7  3  6 182       
PG06  -1870.995445  16966.558574  20393.230797   -175.844285  8  8  6 204       
PG07 -18429.841179   1053.064729 -18982.466436   -187.046262  2  7  5 140       
PG08 -16357.696546  -8496.546574 -19173.687432    -19.425087  8  4  9 212       
PG09 -25667.445694   6141.826396   2970.997689   -127.089273  6  8  7 146       
PG10  11507.073148 -21902.921616  -9267.871735   -201.099698  7 11  8 199       
PG11 -24280.212570  -9927.100390  -3359.787328   -396.783596  5  5 11 187       
PG12  11767.745936  10330.276059  21261.075409    164.832898  6  7  5 204       
PG13   7661.319204  13726.936018 -21542.821408    -21.514409  5  3  5 185       
PG14   7078.906338 -16076.150648  20194.970223    -40.175131  5  8  6 191       
PG15  18004.557855   7438.777502 -18515.612763   -260.221814  3 11  7 192       
PG16   -733.390478 -23620.466878 -11853.816809   -111.151994  5  9  9 230       
PG17 -17451.748637  14245.819427  14445.810061    194.578681  7 10  7 178       
PG18 -19751.867829 -17802.853880  -1484.207007    111.922544 10  5 10 346       
PG19 -10923.433405  14962.071508  18745.450365   -215.657009  9 11  7 108       
PG20  14462.031521 -13537.064195 -17691.187246    527.763740  6 10  5 190       
PG21  16217.751393  -4829.086358 -19624.650390    -59.163077  8  7  6 210       
PG22 -12538.358408 -13697.643813  19244.434540   -781.067475  7  6  8 195       
PG23 -24334.295140   -612.979960  11421.722403   -144.598178  5  8  5 151       
PG24  22314.976657  13913.014115   4738.396905     -7.260800  6  7  9 183       
PG26   3771.513314 -26111.957838  -1819.318192    122.418779  9 11 11 179       
PG27  -4628.634391 -14150.581862 -22110.909661   -174.216760  8  8  9 214       
PG28 -12328.115684  22291.290096  -7159.542215    746.551095  6  9  7 214       
PG29  26070.713778  -4028.910592   3150.311845     -1.602788  2  8  9 179       
PG30 -10244.769031  11882.476959 -21396.571838   -123.905986  3  8  2 208       
PG31    321.150540 -18356.657115  18991.908327    -15.009023  6  6  5 189       
PG32  16308.200930 -15550.435950  14012.723647    178.374603  7  5  3 211       
*  2020  1  7 18 30  0.00000000
PG01 -22105.112823 -14289.161952   4477.927916   -255.039509  9  6  9 194       
PG02   8943.600790  19937.150864  15804.221295   -381.502678  8 10  6 220       
PG03 -13744.781618  -7690.937148  21339.756756    -67.740372  8  6  8 222       
PG04 -22130.563649  -3005.473235  14397.838184    -31.043237  4  4  6 195       
PG05   3612.902292  24507.095395  -9442.911926     -5.774096  8  2  6 186       
PG06  -3708.250137  15465.122929  21319.991059   -175.853650  8  7  6 203       
PG07 -19932.502610   -456.692992 -17493.000353   -187.053489  2  6  6 128       
PG08 -14261.178137  -9349.535199 -20388.638037    -19.426535  7  2  9 213       
PG09 -25285.616437   5711.357914   5750.313383   -127.097231  7  8  8 142       
PG10  11505.397389 -20660.580440 -11784.740932   -201.112006  7 11  7 195       
PG11 -23699.063434 -10191.774824  -6060.746084   -396.773944  5  6 11 190       
PG12  11090.150778  12653.756028  20374.861813    164.829257  6  8  6 204       
PG13   5262.408693  14258.238845 -21909.439131    -21.511972  5  2  5 188       
PG14   9218.825492 -16508.206549  18905.232402    -40.173134  6  9  6 194       
PG15  16124.997591   8455.074097 -19755.316815   -260.219371  3 10  7 192       
PG16   -212.292249 -24713.916265  -9291.342265   -111.155232  6  9 10 232       
PG17 -18891.036657  14504.548339  12115.779710    194.584561  7  9  7 176       
PG18 -19378.610037 -17833.929907  -4302.396640    111.924205 10  6 10 346       
PG19 -12993.343887  15327.029739  17083.187135   -215.652516  9 10  8 133       
PG20  14507.590033 -11426.366470 -19112.442595    527.763743  6 10  4 189       
PG21  17988.188424  -3292.780398 -18389.642943    -59.157732  8  7  5 210       
PG22 -12149.333772 -15756.964705  17861.977447   -781.069045  7  5  8 198       
PG23 -23116.961851  -1294.639749  13700.015615   -144.595893  6  8  4 147       
PG24  22454.987012  14390.038904   1985.976109     -7.261102  6  7  9 185       
PG26   4080.444065 -26106.002367   1024.684467    122.425986  9 11 11 185       
PG27  -2267.459347 -14945.220354 -21926.635689   -174.227006  7  9  9 215       
PG28 -12218.761611  21238.360615  -9818.483585    746.548897  6  8  7 215       
PG29  25611.294736  -3718.246959   5990.636876     -1.611565  2  8  9 176       
PG30 -12041.332158  10203.833090 -21345.011051   -123.913899  4  8    207       
PG31   2078.438347 -16924.862997  20211.892955    -15.011359  5  4  5 190       
PG32  17767.303369 -15830.138062  11716.172107    178.384323  7  5  4 211       
EOF
